LEMUR-2-PETERG          
1 42841U 17042S   26068.48235713  .00023240  00000+0  81076-3 0  9993
2 42841  97.3980 253.6596 0003700 341.6938  18.4169 15.29611459473171
STARLINK-31826          
1 59768U 24091R   26068.69436063 -.00000809  00000+0 -15209-4 0  9999
2 59768  53.1610  26.9672 0001102  74.8938 285.2185 15.30197191103000
