[{"OBJECT_NAME":"LEMUR-2-PETERG","OBJECT_ID":"2017-042S","EPOCH":"2026-03-09T11:34:35.656032","MEAN_MOTION":15.29611459,"ECCENTRICITY":0.00037,"INCLINATION":97.398,"RA_OF_ASC_NODE":253.6596,"ARG_OF_PERICENTER":341.6938,"MEAN_ANOMALY":18.4169,"EPHEMERIS_TYPE":0,"CLASSIFICATION_TYPE":"U","NORAD_CAT_ID":42841,"ELEMENT_SET_NO":999,"REV_AT_EPOCH":47317,"BSTAR":0.00081076471,"MEAN_MOTION_DOT":0.0002324,"MEAN_MOTION_DDOT":0},{"OBJECT_NAME":"STARLINK-31826","OBJECT_ID":"2024-091R","EPOCH":"2026-03-09T16:39:52.758432","MEAN_MOTION":15.30197191,"ECCENTRICITY":0.00011019,"INCLINATION":53.161,"RA_OF_ASC_NODE":26.9672,"ARG_OF_PERICENTER":74.8938,"MEAN_ANOMALY":285.2185,"EPHEMERIS_TYPE":0,"CLASSIFICATION_TYPE":"U","NORAD_CAT_ID":59768,"ELEMENT_SET_NO":999,"REV_AT_EPOCH":10300,"BSTAR":-1.520888e-5,"MEAN_MOTION_DOT":-8.09e-6,"MEAN_MOTION_DDOT":0}]
